COSMOS 1933             
1 18958U 88020A   26001.93449975  .00008276  00000+0  41344-3 0  9999
2 18958  82.5147 316.9229 0006252  77.3849 282.8083 15.17319406 40108
SL-3 R/B                
1 19046U 88032B   26002.21888449  .00009334  00000+0  44461-3 0  9995
2 19046  97.5093 345.8022 0028396 104.6435 255.7951 15.18988941 42015
SL-16 R/B               
1 19120U 88039B   26001.97004114  .00000234  00000+0  13345-3 0  9993
2 19120  71.0131 209.6239 0019546  81.5629 278.7710 14.19601071948918
COSMOS 1953             
1 19210U 88050A   25363.34859606  .00008063  00000+0  30114-3 0  9992
2 19210  82.5080 228.9139 0012535  18.6006 341.5688 15.27141359 27045
SL-8 R/B                
1 19257U 88053B   26002.13142645  .00000471  00000+0  16108-3 0  9994
2 19257  74.0461 235.1382 0018997  71.5722  47.3741 14.38873946967023
COSMOS 1975             
1 19573U 88093A   26001.96912497  .00012163  00000+0  45932-3 0  9997
2 19573  82.5187 184.5724 0012624  48.7811 311.4513 15.26807118  9223
SL-14 R/B               
1 19574U 88093B   26002.24540997  .00001054  00000+0  11879-3 0  9992
2 19574  82.5320 104.4253 0019296 257.1421 131.7664 14.85577208991178
SL-16 R/B               
1 19650U 88102B   26002.22531237 -.00000158  00000+0 -55747-4 0  9992
2 19650  71.0004 291.3404 0011968 116.5911 243.6440 14.16142479917488
INTERCOSMOS 24          
1 20261U 89080A   26001.92272729  .00000881  00000+0  25048-3 0  9993
2 20261  82.6066 147.8323 1188918  87.7211 285.9210 12.59473509658394
SL-14 R/B               
1 20262U 89080C   26002.06552042  .00000535  00000+0  15980-3 0  9999
2 20262  82.5912 215.9707 1230196 337.1372  17.9125 12.50430716651826
DELTA 1 R/B             
1 20323U 89089B   26002.19552111  .00000793  00000+0  20515-3 0  9993
2 20323  97.0739 220.1902 0068460 333.9142  25.8612 14.50593296886091
ARIANE 40 R/B           
1 20443U 90005H   26002.17048759  .00000603  00000+0  20542-3 0  9992
2 20443  98.3214  64.7683 0010832  49.4985 310.7146 14.39816567883235
