CCSDS_OMM_VERS = 2.0
CREATION_DATE  = 
ORIGINATOR     = 

OBJECT_NAME    = COSMOS 1933
OBJECT_ID      = 1988-020A
CENTER_NAME    = EARTH
REF_FRAME      = TEME
TIME_SYSTEM    = UTC
MEAN_ELEMENT_THEORY = SGP/SGP4

EPOCH          = 2026-01-01T22:25:40.778400
MEAN_MOTION    = 15.17319406
ECCENTRICITY   = .0006252
INCLINATION    = 82.5147
RA_OF_ASC_NODE = 316.9229
ARG_OF_PERICENTER = 77.3849
MEAN_ANOMALY   = 282.8083

EPHEMERIS_TYPE = 0
CLASSIFICATION_TYPE = U
NORAD_CAT_ID   = 18958
ELEMENT_SET_NO = 999
REV_AT_EPOCH   = 4010
BSTAR          = .41344E-3
MEAN_MOTION_DOT = .8276E-4
MEAN_MOTION_DDOT = 0

CCSDS_OMM_VERS = 2.0
CREATION_DATE  = 
ORIGINATOR     = 

OBJECT_NAME    = SL-3 R/B
OBJECT_ID      = 1988-032B
CENTER_NAME    = EARTH
REF_FRAME      = TEME
TIME_SYSTEM    = UTC
MEAN_ELEMENT_THEORY = SGP/SGP4

EPOCH          = 2026-01-02T05:15:11.619936
MEAN_MOTION    = 15.18988941
ECCENTRICITY   = .00283968
INCLINATION    = 97.5093
RA_OF_ASC_NODE = 345.8022
ARG_OF_PERICENTER = 104.6435
MEAN_ANOMALY   = 255.7951

EPHEMERIS_TYPE = 0
CLASSIFICATION_TYPE = U
NORAD_CAT_ID   = 19046
ELEMENT_SET_NO = 999
REV_AT_EPOCH   = 4201
BSTAR          = .44460613E-3
MEAN_MOTION_DOT = .9334E-4
MEAN_MOTION_DDOT = 0

CCSDS_OMM_VERS = 2.0
CREATION_DATE  = 
ORIGINATOR     = 

OBJECT_NAME    = SL-16 R/B
OBJECT_ID      = 1988-039B
CENTER_NAME    = EARTH
REF_FRAME      = TEME
TIME_SYSTEM    = UTC
MEAN_ELEMENT_THEORY = SGP/SGP4

EPOCH          = 2026-01-01T23:16:51.554496
MEAN_MOTION    = 14.19601071
ECCENTRICITY   = .0019546
INCLINATION    = 71.0131
RA_OF_ASC_NODE = 209.6239
ARG_OF_PERICENTER = 81.5629
MEAN_ANOMALY   = 278.7710

EPHEMERIS_TYPE = 0
CLASSIFICATION_TYPE = U
NORAD_CAT_ID   = 19120
ELEMENT_SET_NO = 999
REV_AT_EPOCH   = 94891
BSTAR          = .13345E-3
MEAN_MOTION_DOT = .234E-5
MEAN_MOTION_DDOT = 0

CCSDS_OMM_VERS = 2.0
CREATION_DATE  = 
ORIGINATOR     = 

OBJECT_NAME    = COSMOS 1953
OBJECT_ID      = 1988-050A
CENTER_NAME    = EARTH
REF_FRAME      = TEME
TIME_SYSTEM    = UTC
MEAN_ELEMENT_THEORY = SGP/SGP4

EPOCH          = 2025-12-29T08:21:58.699584
MEAN_MOTION    = 15.27141359
ECCENTRICITY   = .00125356
INCLINATION    = 82.5080
RA_OF_ASC_NODE = 228.9139
ARG_OF_PERICENTER = 18.6006
MEAN_ANOMALY   = 341.5688

EPHEMERIS_TYPE = 0
CLASSIFICATION_TYPE = U
NORAD_CAT_ID   = 19210
ELEMENT_SET_NO = 999
REV_AT_EPOCH   = 2704
BSTAR          = .30113736E-3
MEAN_MOTION_DOT = .8063E-4
MEAN_MOTION_DDOT = 0

CCSDS_OMM_VERS = 2.0
CREATION_DATE  = 
ORIGINATOR     = 

OBJECT_NAME    = SL-8 R/B
OBJECT_ID      = 1988-053B
CENTER_NAME    = EARTH
REF_FRAME      = TEME
TIME_SYSTEM    = UTC
MEAN_ELEMENT_THEORY = SGP/SGP4

EPOCH          = 2026-01-02T03:09:15.245280
MEAN_MOTION    = 14.38873946
ECCENTRICITY   = .00189979
INCLINATION    = 74.0461
RA_OF_ASC_NODE = 235.1382
ARG_OF_PERICENTER = 71.5722
MEAN_ANOMALY   = 47.3741

EPHEMERIS_TYPE = 0
CLASSIFICATION_TYPE = U
NORAD_CAT_ID   = 19257
ELEMENT_SET_NO = 999
REV_AT_EPOCH   = 96702
BSTAR          = .16107775E-3
MEAN_MOTION_DOT = .471E-5
MEAN_MOTION_DDOT = 0

CCSDS_OMM_VERS = 2.0
CREATION_DATE  = 
ORIGINATOR     = 

OBJECT_NAME    = COSMOS 1975
OBJECT_ID      = 1988-093A
CENTER_NAME    = EARTH
REF_FRAME      = TEME
TIME_SYSTEM    = UTC
MEAN_ELEMENT_THEORY = SGP/SGP4

EPOCH          = 2026-01-01T23:15:32.397408
MEAN_MOTION    = 15.26807118
ECCENTRICITY   = .0012624
INCLINATION    = 82.5187
RA_OF_ASC_NODE = 184.5724
ARG_OF_PERICENTER = 48.7811
MEAN_ANOMALY   = 311.4513

EPHEMERIS_TYPE = 0
CLASSIFICATION_TYPE = U
NORAD_CAT_ID   = 19573
ELEMENT_SET_NO = 999
REV_AT_EPOCH   = 922
BSTAR          = .45932E-3
MEAN_MOTION_DOT = .12163E-3
MEAN_MOTION_DDOT = 0

CCSDS_OMM_VERS = 2.0
CREATION_DATE  = 
ORIGINATOR     = 

OBJECT_NAME    = SL-14 R/B
OBJECT_ID      = 1988-093B
CENTER_NAME    = EARTH
REF_FRAME      = TEME
TIME_SYSTEM    = UTC
MEAN_ELEMENT_THEORY = SGP/SGP4

EPOCH          = 2026-01-02T05:53:23.421408
MEAN_MOTION    = 14.85577208
ECCENTRICITY   = .00192963
INCLINATION    = 82.5320
RA_OF_ASC_NODE = 104.4253
ARG_OF_PERICENTER = 257.1421
MEAN_ANOMALY   = 131.7664

EPHEMERIS_TYPE = 0
CLASSIFICATION_TYPE = U
NORAD_CAT_ID   = 19574
ELEMENT_SET_NO = 999
REV_AT_EPOCH   = 99117
BSTAR          = .11878648E-3
MEAN_MOTION_DOT = .1054E-4
MEAN_MOTION_DDOT = 0

CCSDS_OMM_VERS = 2.0
CREATION_DATE  = 
ORIGINATOR     = 

OBJECT_NAME    = SL-16 R/B
OBJECT_ID      = 1988-102B
CENTER_NAME    = EARTH
REF_FRAME      = TEME
TIME_SYSTEM    = UTC
MEAN_ELEMENT_THEORY = SGP/SGP4

EPOCH          = 2026-01-02T05:24:26.988768
MEAN_MOTION    = 14.16142479
ECCENTRICITY   = .00119681
INCLINATION    = 71.0004
RA_OF_ASC_NODE = 291.3404
ARG_OF_PERICENTER = 116.5911
MEAN_ANOMALY   = 243.6440

EPHEMERIS_TYPE = 0
CLASSIFICATION_TYPE = U
NORAD_CAT_ID   = 19650
ELEMENT_SET_NO = 999
REV_AT_EPOCH   = 91748
BSTAR          = -.55746979E-4
MEAN_MOTION_DOT = -.158E-5
MEAN_MOTION_DDOT = 0

CCSDS_OMM_VERS = 2.0
CREATION_DATE  = 
ORIGINATOR     = 

OBJECT_NAME    = INTERCOSMOS 24
OBJECT_ID      = 1989-080A
CENTER_NAME    = EARTH
REF_FRAME      = TEME
TIME_SYSTEM    = UTC
MEAN_ELEMENT_THEORY = SGP/SGP4

EPOCH          = 2026-01-01T22:08:43.637856
MEAN_MOTION    = 12.59473509
ECCENTRICITY   = .1188918
INCLINATION    = 82.6066
RA_OF_ASC_NODE = 147.8323
ARG_OF_PERICENTER = 87.7211
MEAN_ANOMALY   = 285.9210

EPHEMERIS_TYPE = 0
CLASSIFICATION_TYPE = U
NORAD_CAT_ID   = 20261
ELEMENT_SET_NO = 999
REV_AT_EPOCH   = 65839
BSTAR          = .25048E-3
MEAN_MOTION_DOT = .881E-5
MEAN_MOTION_DDOT = 0

CCSDS_OMM_VERS = 2.0
CREATION_DATE  = 
ORIGINATOR     = 

OBJECT_NAME    = SL-14 R/B
OBJECT_ID      = 1989-080C
CENTER_NAME    = EARTH
REF_FRAME      = TEME
TIME_SYSTEM    = UTC
MEAN_ELEMENT_THEORY = SGP/SGP4

EPOCH          = 2026-01-02T01:34:20.964288
MEAN_MOTION    = 12.50430716
ECCENTRICITY   = .12301965
INCLINATION    = 82.5912
RA_OF_ASC_NODE = 215.9707
ARG_OF_PERICENTER = 337.1372
MEAN_ANOMALY   = 17.9125

EPHEMERIS_TYPE = 0
CLASSIFICATION_TYPE = U
NORAD_CAT_ID   = 20262
ELEMENT_SET_NO = 999
REV_AT_EPOCH   = 65182
BSTAR          = .15979629E-3
MEAN_MOTION_DOT = .535E-5
MEAN_MOTION_DDOT = 0

CCSDS_OMM_VERS = 2.0
CREATION_DATE  = 
ORIGINATOR     = 

OBJECT_NAME    = DELTA 1 R/B
OBJECT_ID      = 1989-089B
CENTER_NAME    = EARTH
REF_FRAME      = TEME
TIME_SYSTEM    = UTC
MEAN_ELEMENT_THEORY = SGP/SGP4

EPOCH          = 2026-01-02T04:41:33.023904
MEAN_MOTION    = 14.50593296
ECCENTRICITY   = .00684602
INCLINATION    = 97.0739
RA_OF_ASC_NODE = 220.1902
ARG_OF_PERICENTER = 333.9142
MEAN_ANOMALY   = 25.8612

EPHEMERIS_TYPE = 0
CLASSIFICATION_TYPE = U
NORAD_CAT_ID   = 20323
ELEMENT_SET_NO = 999
REV_AT_EPOCH   = 88609
BSTAR          = .20515471E-3
MEAN_MOTION_DOT = .793E-5
MEAN_MOTION_DDOT = 0

CCSDS_OMM_VERS = 2.0
CREATION_DATE  = 
ORIGINATOR     = 

OBJECT_NAME    = ARIANE 40 R/B
OBJECT_ID      = 1990-005H
CENTER_NAME    = EARTH
REF_FRAME      = TEME
TIME_SYSTEM    = UTC
MEAN_ELEMENT_THEORY = SGP/SGP4

EPOCH          = 2026-01-02T04:05:30.127776
MEAN_MOTION    = 14.39816567
ECCENTRICITY   = .00108321
INCLINATION    = 98.3214
RA_OF_ASC_NODE = 64.7683
ARG_OF_PERICENTER = 49.4985
MEAN_ANOMALY   = 310.7146

EPHEMERIS_TYPE = 0
CLASSIFICATION_TYPE = U
NORAD_CAT_ID   = 20443
ELEMENT_SET_NO = 999
REV_AT_EPOCH   = 88323
BSTAR          = .20541949E-3
MEAN_MOTION_DOT = .603E-5
MEAN_MOTION_DDOT = 0

